{"type": "FeatureCollection", "features": [ {"type": "Feature", "properties": {"norad_id": 61182, "name": "GSAT0232 (GALILEO 32)", "group": "gnss", "lat": -32.207641581712714, "lon": 72.06685289788575, "alt_km": 23220.9142502955, "timestamp": "2025-12-24T05:51:19.852905+00:00", "meta": {"OBJECT_NAME": "GSAT0232 (GALILEO 32)", "OBJECT_ID": "2024-167A", "EPOCH": "2025-12-22T11:14:58.318656", "MEAN_MOTION": 1.70473576, "ECCENTRICITY": 0.00018839, "INCLINATION": 55.2381, "RA_OF_ASC_NODE": 226.1639, "ARG_OF_PERICENTER": 204.0949, "MEAN_ANOMALY": 6.8996, "EPHEMERIS_TYPE": 0, "CLASSIFICATION_TYPE": "U", "NORAD_CAT_ID": 61182, "ELEMENT_SET_NO": 999, "REV_AT_EPOCH": 786, "BSTAR": 0, "MEAN_MOTION_DOT": 7.4e-07, "MEAN_MOTION_DDOT": 0}, "tle": {"line1": "1 61182U 24167A   25356.46873054  .00000074  00000+0  00000+0 0  9995", "line2": "2 61182  55.2381 226.1639 0001883 204.0949   6.8996  1.70473576  7860"}}, "geometry": {"type": "Point", "coordinates": [72.06685289788575, -32.207641581712714]}}, {"type": "Feature", "properties": {"norad_id": 61183, "name": "GSAT0226 (GALILEO 31)", "group": "gnss", "lat": -21.84574298425425, "lon": -150.02655382874445, "alt_km": 23227.729849416482, "timestamp": "2025-12-24T05:51:19.852918+00:00", "meta": {"OBJECT_NAME": "GSAT0226 (GALILEO 31)", "OBJECT_ID": "2024-167B", "EPOCH": "2025-12-23T09:50:40.022880", "MEAN_MOTION": 1.70473667, "ECCENTRICITY": 0.00012164, "INCLINATION": 55.2365, "RA_OF_ASC_NODE": 226.1435, "ARG_OF_PERICENTER": 108.5259, "MEAN_ANOMALY": 72.9218, "EPHEMERIS_TYPE": 0, "CLASSIFICATION_TYPE": "U", "NORAD_CAT_ID": 61183, "ELEMENT_SET_NO": 999, "REV_AT_EPOCH": 785, "BSTAR": 0, "MEAN_MOTION_DOT": 7.3e-07, "MEAN_MOTION_DDOT": 0}, "tle": {"line1": "1 61183U 24167B   25357.41018545  .00000073  00000+0  00000+0 0  9997", "line2": "2 61183  55.2365 226.1435 0001216 108.5259  72.9218  1.70473667  7850"}}, "geometry": {"type": "Point", "coordinates": [-150.02655382874445, -21.84574298425425]}}, {"type": "Feature", "properties": {"norad_id": 61186, "name": "BEIDOU-3 M25 (C47)", "group": "gnss", "lat": -49.02942909771382, "lon": -176.9043273400662, "alt_km": 21524.2917883591, "timestamp": "2025-12-24T05:51:19.852929+00:00", "meta": {"OBJECT_NAME": "BEIDOU-3 M25 (C47)", "OBJECT_ID": "2024-168B", "EPOCH": "2025-12-23T15:27:08.107776", "MEAN_MOTION": 1.86230111, "ECCENTRICITY": 0.00054346, "INCLINATION": 54.6324, "RA_OF_ASC_NODE": 308.3432, "ARG_OF_PERICENTER": 299.8932, "MEAN_ANOMALY": 265.5562, "EPHEMERIS_TYPE": 0, "CLASSIFICATION_TYPE": "U", "NORAD_CAT_ID": 61186, "ELEMENT_SET_NO": 999, "REV_AT_EPOCH": 851, "BSTAR": 0, "MEAN_MOTION_DOT": -5.4e-07, "MEAN_MOTION_DDOT": 0}, "tle": {"line1": "1 61186U 24168B   25357.64384384 -.00000054  00000+0  00000+0 0  9993", "line2": "2 61186  54.6324 308.3432 0005434 299.8932 265.5562  1.86230111  8517"}}, "geometry": {"type": "Point", "coordinates": [-176.9043273400662, -49.02942909771382]}}, {"type": "Feature", "properties": {"norad_id": 61187, "name": "BEIDOU-3 M27 (C49)", "group": "gnss", "lat": 18.40220300815532, "lon": -38.056400930677654, "alt_km": 21520.6537766708, "timestamp": "2025-12-24T05:51:19.852942+00:00", "meta": {"OBJECT_NAME": "BEIDOU-3 M27 (C49)", "OBJECT_ID": "2024-168C", "EPOCH": "2025-12-23T10:00:54.789120", "MEAN_MOTION": 1.86230279, "ECCENTRICITY": 0.00025534, "INCLINATION": 54.6281, "RA_OF_ASC_NODE": 308.3346, "ARG_OF_PERICENTER": 340.8055, "MEAN_ANOMALY": 207.7074, "EPHEMERIS_TYPE": 0, "CLASSIFICATION_TYPE": "U", "NORAD_CAT_ID": 61187, "ELEMENT_SET_NO": 999, "REV_AT_EPOCH": 598, "BSTAR": 0, "MEAN_MOTION_DOT": -5.4e-07, "MEAN_MOTION_DDOT": 0}, "tle": {"line1": "1 61187U 24168C   25357.41730080 -.00000054  00000+0  00000+0 0  9997", "line2": "2 61187  54.6281 308.3346 0002553 340.8055 207.7074  1.86230279  5985"}}, "geometry": {"type": "Point", "coordinates": [-38.056400930677654, 18.40220300815532]}}, {"type": "Feature", "properties": {"norad_id": 62339, "name": "GPS BIII-7  (PRN 01)", "group": "gnss", "lat": -51.37327642535852, "lon": -80.28802129257771, "alt_km": 20169.81277543477, "timestamp": "2025-12-24T05:51:19.852954+00:00", "meta": {"OBJECT_NAME": "GPS BIII-7  (PRN 01)", "OBJECT_ID": "2024-242A", "EPOCH": "2025-12-22T12:02:33.556992", "MEAN_MOTION": 2.00568132, "ECCENTRICITY": 0.00128077, "INCLINATION": 54.9208, "RA_OF_ASC_NODE": 341.3454, "ARG_OF_PERICENTER": 346.2078, "MEAN_ANOMALY": 123.2241, "EPHEMERIS_TYPE": 0, "CLASSIFICATION_TYPE": "U", "NORAD_CAT_ID": 62339, "ELEMENT_SET_NO": 999, "REV_AT_EPOCH": 771, "BSTAR": 0, "MEAN_MOTION_DOT": -6.9e-07, "MEAN_MOTION_DDOT": 0}, "tle": {"line1": "1 62339U 24242A   25356.50177728 -.00000069  00000+0  00000+0 0  9999", "line2": "2 62339  54.9208 341.3454 0012807 346.2078 123.2241  2.00568132  7712"}}, "geometry": {"type": "Point", "coordinates": [-80.28802129257771, -51.37327642535852]}}, {"type": "Feature", "properties": {"norad_id": 62850, "name": "NVS-02 (IRNSS-1K)", "group": "gnss", "lat": -9.978016218302182, "lon": 170.83835119317388, "alt_km": 36826.27753121401, "timestamp": "2025-12-24T05:51:19.852968+00:00", "meta": {"OBJECT_NAME": "NVS-02 (IRNSS-1K)", "OBJECT_ID": "2025-020A", "EPOCH": "2025-12-23T02:48:28.612512", "MEAN_MOTION": 2.17602057, "ECCENTRICITY": 0.73473509, "INCLINATION": 20.9588, "RA_OF_ASC_NODE": 323.9017, "ARG_OF_PERICENTER": 32.9618, "MEAN_ANOMALY": 356.3768, "EPHEMERIS_TYPE": 0, "CLASSIFICATION_TYPE": "U", "NORAD_CAT_ID": 62850, "ELEMENT_SET_NO": 999, "REV_AT_EPOCH": 714, "BSTAR": 0.00026724694, "MEAN_MOTION_DOT": 1.47e-06, "MEAN_MOTION_DDOT": 0}, "tle": {"line1": "1 62850U 25020A   25357.11699783  .00000147  00000+0  26725-3 0  9992", "line2": "2 62850  20.9588 323.9017 7347350  32.9618 356.3768  2.17602057  7148"}}, "geometry": {"type": "Point", "coordinates": [170.83835119317388, -9.978016218302182]}}, {"type": "Feature", "properties": {"norad_id": 62876, "name": "QZS-6 (QZSS/PRN 200)", "group": "gnss", "lat": -0.03660919953307484, "lon": -88.61097638114173, "alt_km": 35779.631888531774, "timestamp": "2025-12-24T05:51:19.852980+00:00", "meta": {"OBJECT_NAME": "QZS-6 (QZSS/PRN 200)", "OBJECT_ID": "2025-023A", "EPOCH": "2025-12-23T22:07:22.775232", "MEAN_MOTION": 1.00271041, "ECCENTRICITY": 0.00016025, "INCLINATION": 0.0563, "RA_OF_ASC_NODE": 73.1036, "ARG_OF_PERICENTER": 207.8125, "MEAN_ANOMALY": 234.1779, "EPHEMERIS_TYPE": 0, "CLASSIFICATION_TYPE": "U", "NORAD_CAT_ID": 62876, "ELEMENT_SET_NO": 999, "REV_AT_EPOCH": 320, "BSTAR": 0, "MEAN_MOTION_DOT": -2.12e-06, "MEAN_MOTION_DDOT": 0}, "tle": {"line1": "1 62876U 25023A   25357.92179138 -.00000212  00000+0  00000+0 0  9997", "line2": "2 62876   0.0563  73.1036 0001602 207.8125 234.1779  1.00271041  3203"}}, "geometry": {"type": "Point", "coordinates": [-88.61097638114173, -0.03660919953307484]}}, {"type": "Feature", "properties": {"norad_id": 63130, "name": "COSMOS 2584 (704K)", "group": "gnss", "lat": 61.19278259688543, "lon": -159.21479877738196, "alt_km": 19131.689153011095, "timestamp": "2025-12-24T05:51:19.852991+00:00", "meta": {"OBJECT_NAME": "COSMOS 2584 (704K)", "OBJECT_ID": "2025-042A", "EPOCH": "2025-12-23T15:18:41.586912", "MEAN_MOTION": 2.13102998, "ECCENTRICITY": 0.00077597, "INCLINATION": 64.9817, "RA_OF_ASC_NODE": 78.7748, "ARG_OF_PERICENTER": 220.3621, "MEAN_ANOMALY": 139.628, "EPHEMERIS_TYPE": 0, "CLASSIFICATION_TYPE": "U", "NORAD_CAT_ID": 63130, "ELEMENT_SET_NO": 999, "REV_AT_EPOCH": 630, "BSTAR": 0, "MEAN_MOTION_DOT": 1e-08, "MEAN_MOTION_DDOT": 0}, "tle": {"line1": "1 63130U 25042A   25357.63798133  .00000001  00000+0  00000+0 0  9997", "line2": "2 63130  64.9817  78.7748 0007759 220.3621 139.6280  2.13102998  6308"}}, "geometry": {"type": "Point", "coordinates": [-159.21479877738196, 61.19278259688543]}}, {"type": "Feature", "properties": {"norad_id": 64202, "name": "GPS BIII-8  (PRN 21)", "group": "gnss", "lat": 47.23870918330598, "lon": 169.2469465677015, "alt_km": 20192.233087160566, "timestamp": "2025-12-24T05:51:19.853002+00:00", "meta": {"OBJECT_NAME": "GPS BIII-8  (PRN 21)", "OBJECT_ID": "2025-116A", "EPOCH": "2025-12-22T08:06:38.435904", "MEAN_MOTION": 2.0055774, "ECCENTRICITY": 0.00058811, "INCLINATION": 55.1123, "RA_OF_ASC_NODE": 38.2538, "ARG_OF_PERICENTER": 310.2998, "MEAN_ANOMALY": 229.9806, "EPHEMERIS_TYPE": 0, "CLASSIFICATION_TYPE": "U", "NORAD_CAT_ID": 64202, "ELEMENT_SET_NO": 999, "REV_AT_EPOCH": 432, "BSTAR": 0, "MEAN_MOTION_DOT": -5.2e-07, "MEAN_MOTION_DDOT": 0}, "tle": {"line1": "1 64202U 25116A   25356.33794486 -.00000052  00000+0  00000+0 0  9990", "line2": "2 64202  55.1123  38.2538 0005881 310.2998 229.9806  2.00557740  4321"}}, "geometry": {"type": "Point", "coordinates": [169.2469465677015, 47.23870918330598]}}, {"type": "Feature", "properties": {"norad_id": 65590, "name": "COSMOS 2596 (708K)", "group": "gnss", "lat": -38.20869486871926, "lon": 162.86398090733414, "alt_km": 19131.287494035787, "timestamp": "2025-12-24T05:51:19.853013+00:00", "meta": {"OBJECT_NAME": "COSMOS 2596 (708K)", "OBJECT_ID": "2025-206B", "EPOCH": "2025-12-23T22:53:10.888800", "MEAN_MOTION": 2.13100322, "ECCENTRICITY": 0.00140941, "INCLINATION": 64.7383, "RA_OF_ASC_NODE": 321.0857, "ARG_OF_PERICENTER": 307.5148, "MEAN_ANOMALY": 52.9772, "EPHEMERIS_TYPE": 0, "CLASSIFICATION_TYPE": "U", "NORAD_CAT_ID": 65590, "ELEMENT_SET_NO": 999, "REV_AT_EPOCH": 218, "BSTAR": 0, "MEAN_MOTION_DOT": -3.6e-07, "MEAN_MOTION_DDOT": 0}, "tle": {"line1": "1 65590U 25206B   25357.95359825 -.00000036  00000+0  00000+0 0  9996", "line2": "2 65590  64.7383 321.0857 0014094 307.5148  52.9772  2.13100322  2187"}}, "geometry": {"type": "Point", "coordinates": [162.86398090733414, -38.20869486871926]}}]}